ORBVIEW 2 (SEASTAR)     
1 24883U 97037A   13027.36261216  .00000162  00000-0  75522-4 0  9456
2 24883  98.4369 145.7451 0002554 151.6632 208.4687 14.32578550822493
METEOSAT-7              
1 24932U 97049B   13027.63064705  .00000062  00000-0  10000-3 0  4721
2 24932   8.1533  53.7821 0002136 206.9686 150.7245  1.00271379 56428
NOAA 15                 
1 25338U 98030A   13027.51453845  .00000135  00000-0  76057-4 0  5926
2 25338  98.7108  18.5681 0010669 172.2260 187.9098 14.25172922764809
NOAA 16                 
1 26536U 00055A   13027.46937928  .00000488  00000-0  28689-3 0   709
2 26536  99.0634  78.7083 0010862 168.9281 191.2142 14.12835208636706
GOES 12                 
1 26871U 01031A   13025.38885258 -.00000284  00000-0  10000-3 0  9097
2 26871   2.7473  70.7427 0002651 234.1197 259.2937  1.00256488 42228
FENGYUN 1D              
1 27431U 02024B   13027.73783699  .00000016  00000-0  33757-4 0  9097
2 27431  98.7969 354.8513 0014556 277.2795  82.6722 14.09385225550811
NOAA 17                 
1 27453U 02032A   13027.51177124  .00000222  00000-0  11304-3 0    22
2 27453  98.3200  49.0072 0011144 214.5357 145.5113 14.24535715550697
METEOSAT-8 (MSG-1)      
1 27509U 02040B   13027.79353757  .00000000  00000-0  10000-3 0  2186
2 27509   1.8334  61.8430 0000981 115.4930 244.7188  1.00264216 38240
KALPANA-1 (METSAT 1)    
1 27525U 02043A   13027.63126465  .00000000  00000-0  10000-3 0  6201
2 27525   3.3513  68.1659 0006409 208.3812 151.6734  1.00268701 38043
INSAT-3A                
1 27714U 03013A   13027.80608788 -.00000257  00000-0  10000-3 0  5069
2 27714   0.0223  92.0121 0006013 198.4422 220.4454  1.00271105 35944
FENGYUN 2C              
1 28451U 04042A   13027.92623641 -.00000358  00000-0  10000-3 0  6017
2 28451   4.4491  63.8359 0003086  27.0770 133.4410  1.00273425 30292
HIMAWARI-6 (MTSAT-1R)   
1 28622U 05006A   13027.61928331 -.00000280  00000-0  10000-3 0  8126
2 28622   0.0334 236.0420 0001748 135.8002 118.1402  1.00271025 28991
NOAA 18                 
1 28654U 05018A   13027.31480369  .00000368  00000-0  22682-3 0  4834
2 28654  99.0785 353.6447 0013638 243.7665 116.2121 14.11765018396186
METEOSAT-9 (MSG-2)      
1 28912U 05049B   13027.10398090  .00000057  00000-0  10000-3 0  3937
2 28912   0.3785   2.9798 0002417 112.3286  53.6826  1.00413176 26088
MTSAT-2                 
1 28937U 06004A   13025.44036660 -.00000243  00000-0  10000-3 0  3245
2 28937   0.0343 271.2047 0003825  50.3028 106.9209  1.00270320 25458
FORMOSAT-3 FM6          
1 29047U 06011A   13027.60357022  .00000157  00000-0  79392-4 0   132
2 29047  71.9757 212.9581 0050508  31.2451 329.1709 14.27597239356129
FORMOSAT-3 FM1          
1 29048U 06011B   13026.77510855  .00000393  00000-0  17471-3 0   923
2 29048  71.9709 128.5686 0045159 344.0175  15.9531 14.27600892358483
FORMOSAT-3 FM5          
1 29049U 06011C   13027.90242986  .00000365  00000-0  16364-3 0   320
2 29049  72.0222 282.7112 0033911  33.8165 326.5098 14.27616392354429
FORMOSAT-3 FM3          
1 29050U 06011D   13026.88662319  .00001139  00000-0  26646-3 0  3589
2 29050  72.0171 340.8971 0053788 183.9271 176.1432 14.55660077363142
FORMOSAT-3 FM4          
1 29051U 06011E   13027.86594461  .00000376  00000-0  16522-3 0   874
2 29051  72.0049 189.5617 0070479 267.0455  92.2611 14.27618834357004
FORMOSAT-3 FM2          
1 29052U 06011F   13027.11991080  .00000364  00000-0  16273-3 0  1074
2 29052  72.0349 257.3040 0040451   1.2570 358.8644 14.27671442355206
GOES 13                 
1 29155U 06018A   13027.35711381 -.00000250  00000-0  10000-3 0  3940
2 29155   0.3455  92.9176 0001466 311.1918 136.6018  1.00273655 24499
METOP-A                 
1 29499U 06044A   13027.24277678  .00000799  00000-0  38506-3 0  9544
2 29499  98.6708  88.9645 0002274 108.7970 251.3545 14.21505422325551
FENGYUN 2D              
1 29640U 06053A   13026.97393277 -.00000197  00000-0  10000-3 0  5970
2 29640   1.3000  72.7346 0002614 314.5041 176.4165  1.00262169 22536
FENGYUN 3A              
1 32958U 08026A   13027.76297985  .00000018  00000-0  29203-4 0  6287
2 32958  98.6246  96.7647 0008922 234.4391 125.5947 14.19324792242148
NOAA 19                 
1 33591U 09005A   13027.51493719  .00000114  00000-0  87283-4 0  6688
2 33591  98.8893 330.7901 0014823 106.4040 253.8742 14.11451685204658
GOES 14                 
1 35491U 09033A   13027.50068297 -.00000095  00000-0  10000-3 0  8096
2 35491   0.0697 255.5979 0001208 116.5280 193.1564  1.00185588 13168
METEOR-M 1              
1 35865U 09049A   13027.76914687 -.00000037  00000-0  28115-5 0  1726
2 35865  98.6240  83.5102 0003064 109.5740 250.5769 14.21878900174518
GOES 15                 
1 36411U 10008A   13027.49761122  .00000085  00000-0  10000-3 0  4160
2 36411   0.1081 253.1097 0003027  47.9380 230.5201  1.00286861 10665
COMS 1                  
1 36744U 10032A   13027.44757663 -.00000344  00000-0  10000-3 0  5144
2 36744   0.0284  64.0235 0000937 214.7181 137.4282  1.00268971  9632
FENGYUN 3B              
1 37214U 10059A   13027.85678197  .00000070  00000-0  54355-4 0  4657
2 37214  98.7869 333.6546 0001873  99.4121 260.7272 14.19310905115658
ELEKTRO-L 1 (GOMS 2)    
1 37344U 11001A   13026.72932639 -.00000096  00000-0  10000-3 0  5285
2 37344   0.0671 296.3747 0001309 305.1587 223.1856  1.00271734  7455
SUOMI NPP               
1 37849U 11061A   13027.38042603  .00000059  00000-0  48603-4 0  4049
2 37849  98.7391 327.6273 0001634  97.5900 262.5483 14.19526904 64847
FENGYUN 2F              
1 38049U 12002A   13027.52668627 -.00000355  00000-0  10000-3 0  2805
2 38049   1.5753 277.6063 0005176 240.5356 270.4129  1.00278535  3876
METOP-B                 
1 38771U 12049A   13027.13961194  .00000117  00000-0  73574-4 0  1226
2 38771  98.7222  89.3230 0001543 210.8474 149.2637 14.21480412 18673
